start=new Date('2022-08-23T00:00:00.000Z').valueOf();
sats=[{"INCLINATION":"53.0536","EPOCH":"2022-08-22T09:06:47.998080","REV_AT_EPOCH":"8655","COUNTRY_CODE":"US","RCS_SIZE":"LARGE","ECCENTRICITY":"0.00013290","PERIOD":"95.593","OBJECT_NAME":"STARLINK-2083","ELEMENT_SET_NO":"999","APOAPSIS":"548.156","MEAN_MOTION_DOT":"0.00001411","RA_OF_ASC_NODE":"356.4908","MEAN_MOTION_DDOT":"0.0000000000000","GP_ID":"210741252","OBJECT_TYPE":"PAYLOAD","MEAN_MOTION":"15.06392828","PERIAPSIS":"546.315","CENTER_NAME":"EARTH","FILE":"3543757","TLE_LINE2":"2 47676  53.0536 356.4908 0001329  77.4885 282.6253 15.06392828 86559","CLASSIFICATION_TYPE":"U","MEAN_ELEMENT_THEORY":"SGP4","DECAY_DATE":null,"MEAN_ANOMALY":"282.6253","BSTAR":"0.00011359000000","TIME_SYSTEM":"UTC","OBJECT_ID":"2021-012BJ","REF_FRAME":"TEME","EPHEMERIS_TYPE":"0","ARG_OF_PERICENTER":"77.4885","TLE_LINE1":"1 47676U 21012BJ  22234.37972220  .00001411  00000-0  11359-3 0  9990","LAUNCH_DATE":"2021-02-16","SEMIMAJOR_AXIS":"6925.371","NORAD_CAT_ID":"47676","SITE":"AFETR"},{"SITE":"AFETR","NORAD_CAT_ID":"47677","ARG_OF_PERICENTER":"62.8172","LAUNCH_DATE":"2021-02-16","SEMIMAJOR_AXIS":"6925.384","TLE_LINE1":"1 47677U 21012BK  22234.10510542  .00000685  00000-0  64899-4 0  9997","REF_FRAME":"TEME","OBJECT_ID":"2021-012BK","EPHEMERIS_TYPE":"0","BSTAR":"0.00006489900000","DECAY_DATE":null,"MEAN_ANOMALY":"297.2980","TIME_SYSTEM":"UTC","MEAN_ELEMENT_THEORY":"SGP4","CLASSIFICATION_TYPE":"U","TLE_LINE2":"2 47677  53.0548 127.7176 0001595  62.8172 297.2980 15.06388301 84706","CENTER_NAME":"EARTH","PERIAPSIS":"546.145","FILE":"3543757","OBJECT_TYPE":"PAYLOAD","GP_ID":"210741500","MEAN_MOTION":"15.06388301","MEAN_MOTION_DDOT":"0.0000000000000","RA_OF_ASC_NODE":"127.7176","MEAN_MOTION_DOT":"0.00000685","ELEMENT_SET_NO":"999","APOAPSIS":"548.354","OBJECT_NAME":"STARLINK-2090","ECCENTRICITY":"0.00015950","RCS_SIZE":"LARGE","PERIOD":"95.593","COUNTRY_CODE":"US","REV_AT_EPOCH":"8470","INCLINATION":"53.0548","EPOCH":"2022-08-22T02:31:21.108288"},{"TIME_SYSTEM":"UTC","BSTAR":"0.00002462300000","DECAY_DATE":null,"MEAN_ANOMALY":"280.6039","EPHEMERIS_TYPE":"0","OBJECT_ID":"2021-012BM","REF_FRAME":"TEME","TLE_LINE1":"1 47679U 21012BM  22234.79806541  .00000085  00000-0  24623-4 0  9996","SEMIMAJOR_AXIS":"6925.380","LAUNCH_DATE":"2021-02-16","ARG_OF_PERICENTER":"79.5103","SITE":"AFETR","NORAD_CAT_ID":"47679","CLASSIFICATION_TYPE":"U","TLE_LINE2":"2 47679  53.0540 124.6270 0001357  79.5103 280.6039 15.06389865 84826","MEAN_ELEMENT_THEORY":"SGP4","ELEMENT_SET_NO":"999","APOAPSIS":"548.184","MEAN_MOTION_DOT":"0.00000085","MEAN_MOTION_DDOT":"0.0000000000000","RA_OF_ASC_NODE":"124.6270","MEAN_MOTION":"15.06389865","GP_ID":"210776939","OBJECT_TYPE":"PAYLOAD","FILE":"3544179","CENTER_NAME":"EARTH","PERIAPSIS":"546.305","EPOCH":"2022-08-22T19:09:12.851424","INCLINATION":"53.0540","REV_AT_EPOCH":"8482","COUNTRY_CODE":"US","PERIOD":"95.593","RCS_SIZE":"LARGE","ECCENTRICITY":"0.00013570","OBJECT_NAME":"STARLINK-2095"},{"TLE_LINE2":"2 47722  53.0525 249.9501 0001513  76.4651 283.6506 15.06379428 82817","CLASSIFICATION_TYPE":"U","MEAN_ELEMENT_THEORY":"SGP4","EPHEMERIS_TYPE":"0","REF_FRAME":"TEME","OBJECT_ID":"2021-017A","TIME_SYSTEM":"UTC","DECAY_DATE":null,"MEAN_ANOMALY":"283.6506","BSTAR":"0.00012651000000","SITE":"AFETR","NORAD_CAT_ID":"47722","LAUNCH_DATE":"2021-03-04","SEMIMAJOR_AXIS":"6925.412","TLE_LINE1":"1 47722U 21017A   22234.77463042  .00001602  00000-0  12651-3 0  9996","ARG_OF_PERICENTER":"76.4651","COUNTRY_CODE":"US","REV_AT_EPOCH":"8281","EPOCH":"2022-08-22T18:35:28.068288","INCLINATION":"53.0525","OBJECT_NAME":"STARLINK-2068","PERIOD":"95.593","ECCENTRICITY":"0.00015130","RCS_SIZE":"LARGE","MEAN_MOTION_DDOT":"0.0000000000000","RA_OF_ASC_NODE":"249.9501","MEAN_MOTION_DOT":"0.00001602","APOAPSIS":"548.324","ELEMENT_SET_NO":"999","FILE":"3544179","PERIAPSIS":"546.229","CENTER_NAME":"EARTH","MEAN_MOTION":"15.06379428","OBJECT_TYPE":"PAYLOAD","GP_ID":"210777194"},{"OBJECT_ID":"2021-017B","REF_FRAME":"TEME","EPHEMERIS_TYPE":"0","DECAY_DATE":null,"MEAN_ANOMALY":"284.2705","BSTAR":"0.00003278600000","TIME_SYSTEM":"UTC","SITE":"AFETR","NORAD_CAT_ID":"47723","ARG_OF_PERICENTER":"75.8459","TLE_LINE1":"1 47723U 21017B   22234.25164226  .00000207  00000-0  32786-4 0  9994","LAUNCH_DATE":"2021-03-04","SEMIMAJOR_AXIS":"6925.396","TLE_LINE2":"2 47723  53.0551 187.0764 0001578  75.8459 284.2705 15.06384643 83612","CLASSIFICATION_TYPE":"U","MEAN_ELEMENT_THEORY":"SGP4","RA_OF_ASC_NODE":"187.0764","MEAN_MOTION_DDOT":"0.0000000000000","APOAPSIS":"548.353","ELEMENT_SET_NO":"999","MEAN_MOTION_DOT":"0.00000207","PERIAPSIS":"546.168","CENTER_NAME":"EARTH","FILE":"3543757","GP_ID":"210741257","OBJECT_TYPE":"PAYLOAD","MEAN_MOTION":"15.06384643","REV_AT_EPOCH":"8361","COUNTRY_CODE":"US","INCLINATION":"53.0551","EPOCH":"2022-08-22T06:02:21.891264","OBJECT_NAME":"STARLINK-2107","RCS_SIZE":"LARGE","ECCENTRICITY":"0.00015780","PERIOD":"95.593"},{"BSTAR":"0.00002825900000","DECAY_DATE":null,"MEAN_ANOMALY":"284.9972","TIME_SYSTEM":"UTC","OBJECT_ID":"2021-017C","REF_FRAME":"TEME","EPHEMERIS_TYPE":"0","ARG_OF_PERICENTER":"75.1172","TLE_LINE1":"1 47724U 21017C   22234.28848849  .00000139  00000-0  28259-4 0  9992","LAUNCH_DATE":"2021-03-04","SEMIMAJOR_AXIS":"6925.349","SITE":"AFETR","NORAD_CAT_ID":"47724","CLASSIFICATION_TYPE":"U","TLE_LINE2":"2 47724  53.0546 186.9077 0001406  75.1172 284.9972 15.06399999 83586","MEAN_ELEMENT_THEORY":"SGP4","ELEMENT_SET_NO":"999","APOAPSIS":"548.187","MEAN_MOTION_DOT":"0.00000139","RA_OF_ASC_NODE":"186.9077","MEAN_MOTION_DDOT":"0.0000000000000","GP_ID":"210741505","OBJECT_TYPE":"PAYLOAD","MEAN_MOTION":"15.06399999","PERIAPSIS":"546.240","CENTER_NAME":"EARTH","FILE":"3543757","INCLINATION":"53.0546","EPOCH":"2022-08-22T06:55:25.405536","REV_AT_EPOCH":"8358","COUNTRY_CODE":"US","RCS_SIZE":"LARGE","ECCENTRICITY":"0.00014060","PERIOD":"95.592","OBJECT_NAME":"STARLINK-2116"},{"TLE_LINE1":"1 47725U 21017D   22234.78701250  .00001630  00000-0  12832-3 0  9998","SEMIMAJOR_AXIS":"6925.341","LAUNCH_DATE":"2021-03-04","ARG_OF_PERICENTER":"71.9592","SITE":"AFETR","NORAD_CAT_ID":"47725","TIME_SYSTEM":"UTC","BSTAR":"0.00012832000000","DECAY_DATE":null,"MEAN_ANOMALY":"288.1552","EPHEMERIS_TYPE":"0","OBJECT_ID":"2021-017D","REF_FRAME":"TEME","MEAN_ELEMENT_THEORY":"SGP4","TLE_LINE2":"2 47725  53.0530 254.6746 0001425  71.9592 288.1552 15.06402553 82699","CLASSIFICATION_TYPE":"U","MEAN_MOTION":"15.06402553","GP_ID":"210776944","OBJECT_TYPE":"PAYLOAD","FILE":"3544179","CENTER_NAME":"EARTH","PERIAPSIS":"546.219","APOAPSIS":"548.193","ELEMENT_SET_NO":"999","MEAN_MOTION_DOT":"0.00001630","RA_OF_ASC_NODE":"254.6746","MEAN_MOTION_DDOT":"0.0000000000000","PERIOD":"95.592","RCS_SIZE":"LARGE","ECCENTRICITY":"0.00014250","OBJECT_NAME":"STARLINK-2125","EPOCH":"2022-08-22T18:53:17.880000","INCLINATION":"53.0530","REV_AT_EPOCH":"8269","COUNTRY_CODE":"US"},{"TLE_LINE2":"2 47726  53.0545 256.5200 0001417  60.6215 299.4916 15.06389063 82622","CLASSIFICATION_TYPE":"U","MEAN_ELEMENT_THEORY":"SGP4","OBJECT_ID":"2021-017E","REF_FRAME":"TEME","EPHEMERIS_TYPE":"0","BSTAR":"0.00004324400000","DECAY_DATE":null,"MEAN_ANOMALY":"299.4916","TIME_SYSTEM":"UTC","SITE":"AFETR","NORAD_CAT_ID":"47726","ARG_OF_PERICENTER":"60.6215","TLE_LINE1":"1 47726U 21017E   22234.37419821  .00000363  00000-0  43244-4 0  9998","SEMIMAJOR_AXIS":"6925.382","LAUNCH_DATE":"2021-03-04","REV_AT_EPOCH":"8262","COUNTRY_CODE":"US","INCLINATION":"53.0545","EPOCH":"2022-08-22T08:58:50.725344","OBJECT_NAME":"STARLINK-2126","RCS_SIZE":"LARGE","ECCENTRICITY":"0.00014170","PERIOD":"95.593","RA_OF_ASC_NODE":"256.5200","MEAN_MOTION_DDOT":"0.0000000000000","APOAPSIS":"548.228","ELEMENT_SET_NO":"999","MEAN_MOTION_DOT":"0.00000363","PERIAPSIS":"546.266","CENTER_NAME":"EARTH","FILE":"3544179","GP_ID":"210776695","OBJECT_TYPE":"PAYLOAD","MEAN_MOTION":"15.06389063"},{"RCS_SIZE":"LARGE","ECCENTRICITY":"0.00018090","PERIOD":"95.593","OBJECT_NAME":"STARLINK-2129","INCLINATION":"53.0551","EPOCH":"2022-08-22T06:12:56.645280","REV_AT_EPOCH":"8376","COUNTRY_CODE":"US","GP_ID":"210740758","OBJECT_TYPE":"PAYLOAD","MEAN_MOTION":"15.06380021","CENTER_NAME":"EARTH","PERIAPSIS":"546.022","FILE":"3543757","ELEMENT_SET_NO":"999","APOAPSIS":"548.528","MEAN_MOTION_DOT":"0.00000225","MEAN_MOTION_DDOT":"0.0000000000000","RA_OF_ASC_NODE":"177.0472","MEAN_ELEMENT_THEORY":"SGP4","CLASSIFICATION_TYPE":"U","TLE_LINE2":"2 47727  53.0551 177.0472 0001809  60.3565 299.7604 15.06380021 83766","ARG_OF_PERICENTER":"60.3565","TLE_LINE1":"1 47727U 21017F   22234.25898895  .00000225  00000-0  34044-4 0  9993","LAUNCH_DATE":"2021-03-04","SEMIMAJOR_AXIS":"6925.410","NORAD_CAT_ID":"47727","SITE":"AFETR","MEAN_ANOMALY":"299.7604","DECAY_DATE":null,"BSTAR":"0.00003404400000","TIME_SYSTEM":"UTC","OBJECT_ID":"2021-017F","REF_FRAME":"TEME","EPHEMERIS_TYPE":"0"},{"EPHEMERIS_TYPE":"0","OBJECT_ID":"2021-017G","REF_FRAME":"TEME","TIME_SYSTEM":"UTC","DECAY_DATE":null,"MEAN_ANOMALY":"285.3850","BSTAR":"0.00015445000000","SITE":"AFETR","NORAD_CAT_ID":"47728","TLE_LINE1":"1 47728U 21017G   22234.74646738  .00002020  00000-0  15445-3 0  9993","SEMIMAJOR_AXIS":"6925.347","LAUNCH_DATE":"2021-03-04","ARG_OF_PERICENTER":"74.7283","CLASSIFICATION_TYPE":"U","TLE_LINE2":"2 47728  53.0532 254.8485 0001310  74.7283 285.3850 15.06400458 82745","MEAN_ELEMENT_THEORY":"SGP4","MEAN_MOTION_DDOT":"0.0000000000000","RA_OF_ASC_NODE":"254.8485","ELEMENT_SET_NO":"999","APOAPSIS":"548.119","MEAN_MOTION_DOT":"0.00002020","FILE":"3544179","PERIAPSIS":"546.305","CENTER_NAME":"EARTH","MEAN_MOTION":"15.06400458","GP_ID":"210775693","OBJECT_TYPE":"PAYLOAD","REV_AT_EPOCH":"8274","COUNTRY_CODE":"US","EPOCH":"2022-08-22T17:54:54.781632","INCLINATION":"53.0532","OBJECT_NAME":"STARLINK-2131","PERIOD":"95.592","RCS_SIZE":"LARGE","ECCENTRICITY":"0.00013100"}];
